[Satellite]
VERSION=1.1
NAME=DAURIA DX 1
NICKNAME=DAURIA DX 1
TLE1=1 40071U 14037C   19311.67886699  .00000078  00000-0  17563-4 0  9992
TLE2=2 40071  98.4431 112.9691 0009324 125.6677 234.5403 14.81305505288274
STATUS=0
